OBJECT_NAME,OBJECT_ID,EPOCH,MEAN_MOTION,ECCENTRICITY,INCLINATION,RA_OF_ASC_NODE,ARG_OF_PERICENTER,MEAN_ANOMALY,EPHEMERIS_TYPE,CLASSIFICATION_TYPE,NORAD_CAT_ID,ELEMENT_SET_NO,REV_AT_EPOCH,BSTAR,MEAN_MOTION_DOT,MEAN_MOTION_DDOT
STARLINK-32273,2024-209T,2025-07-15T05:39:43.101792,15.30176723,.0001165,53.1594,165.2093,86.3130,273.8004,0,U,61956,999,3854,-.54186E-4,-.1962E-4,0
STARLINK-32359,2024-209U,2025-07-16T04:05:20.018976,15.30216151,.0001712,53.1594,161.0896,88.3909,271.7288,0,U,61957,999,3871,.88861E-3,.26065E-3,0
STARLINK-32566,2024-209V,2025-07-16T05:05:56.005728,15.30189280,.0001372,53.1589,160.6416,118.8316,241.2823,0,U,61958,999,3871,-.27252E-3,-.8419E-4,0
STARLINK-32499,2024-210A,2025-07-15T09:30:03.917952,15.27584836,.0001189,43.0036,79.5338,278.4276,81.6441,0,U,61959,999,3863,.59544E-3,.16161E-3,0
STARLINK-32372,2024-210B,2025-07-15T17:31:56.653248,15.27583300,.0001484,43.0032,77.7446,272.8511,87.2171,0,U,61960,999,3854,.63539E-3,.17265E-3,0
STARLINK-32452,2024-210C,2025-07-15T22:28:45.514560,15.27605437,.0001245,42.9996,69.7857,273.3230,86.7479,0,U,61961,999,3878,.55832E-3,.15145E-3,0
STARLINK-32458,2024-210D,2025-07-15T23:27:18.292320,15.27593984,.0001248,42.9987,62.3108,272.5531,87.5178,0,U,61962,999,3873,.39124E-3,.10524E-3,0
STARLINK-32487,2024-210E,2025-07-16T00:31:07.292352,15.27608342,.0001393,42.9998,76.4851,276.6824,83.3869,0,U,61963,999,3868,.73214E-3,.19957E-3,0
STARLINK-32513,2024-210F,2025-07-15T21:36:29.431296,15.27602110,.0001474,43.0009,62.5947,281.7643,78.3043,0,U,61964,999,3886,.53473E-3,.14491E-3,0
STARLINK-32514,2024-210G,2025-07-15T08:26:54.804480,15.27577088,.0000708,42.9999,73.1362,276.1022,83.9749,0,U,61965,999,3866,.73702E-3,.20072E-3,0
STARLINK-32498,2024-210H,2025-07-16T00:24:27.128160,15.27598476,.0001197,43.0019,61.7494,274.0107,86.0607,0,U,61966,999,3886,.55595E-3,.15076E-3,0
STARLINK-32518,2024-210J,2025-07-15T16:54:39.062592,15.27602959,.0001487,43.0029,71.2951,271.0265,89.0416,0,U,61967,999,3861,.87709E-3,.23969E-3,0
STARLINK-32471,2024-210K,2025-07-15T22:19:30.526752,15.27599344,.0001137,42.9998,69.7434,283.6139,76.4586,0,U,61968,999,3879,.52342E-3,.14177E-3,0
STARLINK-32450,2024-210L,2025-07-15T23:59:11.049216,15.27631678,.000128,43.0026,69.3988,276.4697,83.6009,0,U,61969,999,3860,.7121E-3,.19416E-3,0
STARLINK-32613,2024-210M,2025-07-15T17:06:15.355872,15.27596852,.0000773,43.0025,78.4706,267.8726,92.2037,0,U,61970,999,3867,.98778E-3,.27033E-3,0
STARLINK-32610,2024-210N,2025-07-16T02:20:04.692192,15.27609885,.0001131,43.0003,76.1940,273.9250,86.1472,0,U,61971,999,3873,.60322E-3,.16389E-3,0
STARLINK-32612,2024-210P,2025-07-16T00:51:27.626688,15.27644165,.00011,42.9992,76.5939,275.3002,84.7724,0,U,61972,999,3868,.13493E-2,.37128E-3,0
STARLINK-32601,2024-210Q,2025-07-16T01:17:10.379904,15.27596629,.0001186,43.0021,75.8656,267.9413,92.1303,0,U,61973,999,3869,.36199E-3,.9717E-4,0
STARLINK-32593,2024-210R,2025-07-15T17:15:30.297888,15.27599109,.0001253,43.0022,78.5138,265.7078,94.3630,0,U,61974,999,3863,.67452E-3,.18356E-3,0
STARLINK-32586,2024-210S,2025-07-16T00:25:34.071744,15.27587090,.0001366,42.9997,76.4519,260.4778,99.5919,0,U,61975,999,3868,.76975E-3,.20985E-3,0
STARLINK-32611,2024-210T,2025-07-15T00:47:41.000352,15.27577497,.0001151,42.9985,81.9643,269.2082,90.8638,0,U,61976,999,3853,.24103E-3,.6376E-4,0
STARLINK-32607,2024-210U,2025-07-16T00:40:22.620576,15.27602340,.0001258,42.9989,76.5332,268.2940,91.7768,0,U,61977,999,3872,.58509E-3,.15884E-3,0
STARLINK-32606,2024-210V,2025-07-16T00:34:49.362816,15.27601266,.0001067,43.0017,76.5016,274.8395,85.2335,0,U,61978,999,3868,.52557E-3,.14238E-3,0
STARLINK-32578,2024-210W,2025-07-16T01:33:49.562208,15.27596049,.0001218,43.0007,75.9521,274.6527,85.4185,0,U,61979,999,3873,.43661E-3,.11778E-3,0
STARLINK-32517,2024-210X,2025-07-15T17:11:48.172128,15.27591134,.000147,43.0004,78.4963,271.2805,88.7878,0,U,61980,999,3858,.58923E-3,.15993E-3,0
STARLINK-32522,2024-210Y,2025-07-16T01:48:37.385280,15.27606480,.0001393,42.9999,76.0264,270.9694,89.0997,0,U,61981,999,3878,.59973E-3,.16291E-3,0
STARLINK-32560,2024-210Z,2025-07-16T01:28:16.485024,15.27596317,.0001518,43.0012,75.9216,266.0148,94.0530,0,U,61982,999,3869,.46971E-3,.12692E-3,0
OPTUS-X (ADS-01),2024-212A,2025-07-15T19:55:29.923680,1.00271337,.0000781,0.0164,347.0594,159.6116,190.1634,0,U,62006,999,238,0,-.319E-5,0
STARLINK-11433 [DTC],2024-213A,2025-07-16T00:08:56.397120,15.69741425,.0000781,53.1572,127.8568,62.0290,298.0807,0,U,62008,999,3895,.16248E-2,.201367E-2,0
STARLINK-11262 [DTC],2024-213B,2025-07-16T02:37:08.323104,15.69733509,.000138,53.1576,127.8072,40.4438,319.6682,0,U,62009,999,3885,.15192E-2,.187869E-2,0
STARLINK-11326 [DTC],2024-213C,2025-07-16T02:08:52.674720,15.69758743,.000119,53.1578,127.6730,92.8540,267.2614,0,U,62010,999,3876,.11271E-2,.13854E-2,0
STARLINK-11330 [DTC],2024-213D,2025-07-16T02:30:04.279680,15.69731586,.0001163,53.1567,127.7710,79.4861,280.6288,0,U,62011,999,3869,.10538E-2,.129199E-2,0
STARLINK-11363 [DTC],2024-213E,2025-07-16T01:54:45.130464,15.69715963,.0001169,53.1572,127.6110,81.1122,279.0028,0,U,62012,999,3876,.14332E-2,.176834E-2,0
STARLINK-11377 [DTC],2024-213F,2025-07-16T04:51:03.467808,15.69735599,.0001202,53.1571,126.9541,95.0282,265.0873,0,U,62013,999,3898,.11817E-2,.145259E-2,0
STARLINK-11385 [DTC],2024-213G,2025-07-16T02:23:00.523968,15.69735935,.0000953,53.1571,127.7413,97.0047,263.1079,0,U,62014,999,3875,.89005E-3,.10878E-2,0
STARLINK-11396 [DTC],2024-213H,2025-07-16T04:36:55.773216,15.69720039,.0001237,53.1563,126.8816,100.6630,259.4527,0,U,62015,999,3861,.11092E-2,.136071E-2,0
STARLINK-11393 [DTC],2024-213J,2025-07-16T02:58:10.965792,15.69703786,.0001238,53.1568,127.1662,72.4045,287.7108,0,U,62016,999,3871,.10876E-2,.133274E-2,0
STARLINK-11343 [DTC],2024-213K,2025-07-16T02:15:56.772576,15.69747604,.0000995,53.1566,127.7089,70.7524,289.3601,0,U,62017,999,3896,.14177E-2,.175109E-2,0
STARLINK-11411 [DTC],2024-213L,2025-07-16T05:05:11.288544,15.69731087,.0001118,53.1574,127.0166,97.2495,262.8650,0,U,62018,999,3897,.11059E-2,.13572E-2,0
STARLINK-11404 [DTC],2024-213M,2025-07-16T02:44:12.084864,15.69713579,.0001353,53.1574,127.8368,54.8696,305.2448,0,U,62019,999,3875,.69076E-3,.83959E-3,0
STARLINK-11378 [DTC],2024-213N,2025-07-16T04:22:48.137376,15.69733304,.000123,53.1571,126.8185,87.8751,272.2407,0,U,62020,999,3871,.10032E-2,.122881E-2,0
STARLINK-32520,2024-213P,2025-07-16T04:57:04.459104,15.30200198,.000105,53.1570,186.8873,97.4055,262.7065,0,U,62021,999,3815,.42878E-3,.12361E-3,0
STARLINK-32539,2024-213Q,2025-07-16T05:14:28.304160,15.30200036,.0001367,53.1579,173.9993,89.8175,270.2982,0,U,62022,999,3794,.38712E-3,.11123E-3,0
STARLINK-32334,2024-213R,2025-07-15T16:38:11.979744,15.30175510,.0001314,53.1585,188.6606,90.6837,269.4315,0,U,62023,999,3687,.12077E-2,.35554E-3,0
STARLINK-32504,2024-213S,2025-07-16T05:34:54.624288,15.30190081,.0001232,53.1604,186.3443,77.5334,282.5804,0,U,62024,999,3816,.11858E-3,.3153E-4,0
STARLINK-32493,2024-213T,2025-07-16T04:47:57.390720,15.30200083,.0001096,53.1557,186.8473,96.4796,263.6330,0,U,62025,999,3816,.23929E-3,.6734E-4,0
STARLINK-32561,2024-213U,2025-07-16T05:44:01.351392,15.30204607,.0001617,53.1600,186.3798,89.7706,270.3480,0,U,62026,999,3817,.70487E-3,.20578E-3,0
STARLINK-32512,2024-213V,2025-07-16T05:21:13.635936,15.30203640,.0001476,53.1598,186.2793,80.8229,279.2939,0,U,62027,999,3764,.67889E-3,.19803E-3,0
GSAT-N2 (GSAT-20),2024-214A,2025-07-16T03:26:13.681824,1.00270494,.0003076,0.0766,261.0557,141.7500,10.9246,0,U,62028,999,252,0,-.11E-6,0
STARLINK-32637,2024-216A,2025-07-16T05:01:38.936352,15.27611202,.0001068,43.0012,151.4482,278.6931,81.3800,0,U,62032,999,3763,.10369E-2,.28408E-3,0
STARLINK-32582,2024-216B,2025-07-15T22:03:08.110368,15.27600254,.0000905,42.9992,160.4844,256.1599,103.9152,0,U,62033,999,3758,.67204E-3,.18288E-3,0
STARLINK-32615,2024-216C,2025-07-16T04:23:00.245472,15.27594817,.0001216,42.9996,152.1052,267.9888,92.0825,0,U,62034,999,3763,.52946E-3,.14342E-3,0
STARLINK-32592,2024-216D,2025-07-16T04:56:45.743136,15.27590257,.0001153,43.0003,159.1995,262.9521,97.1199,0,U,62035,999,3760,.36506E-3,.98E-4,0
STARLINK-32225,2024-216E,2025-07-16T04:28:33.445344,15.27592568,.0000445,43.0007,152.1363,248.6034,111.4770,0,U,62036,999,3777,.48294E-3,.13056E-3,0
STARLINK-32595,2024-216F,2025-07-15T23:57:38.582208,15.27586256,.0001235,43.0005,160.2205,272.1201,87.9509,0,U,62037,999,3760,.29945E-3,.7989E-4,0
STARLINK-32477,2024-216G,2025-07-16T03:55:30.056448,15.36368220,.0001654,42.9997,151.0973,274.9208,85.1458,0,U,62038,999,3764,.29052E-3,.10257E-3,0
STARLINK-32480,2024-216H,2025-07-15T23:49:47.155296,15.27587181,.0001202,43.0005,153.2637,261.3253,98.7463,0,U,62039,999,3749,.40255E-3,.10834E-3,0
STARLINK-32510,2024-216J,2025-07-15T23:00:29.659968,15.27588830,.0001531,43.0017,160.7846,260.6843,99.3835,0,U,62040,999,3751,.50814E-3,.13751E-3,0
STARLINK-32456,2024-216K,2025-07-15T22:21:11.041056,15.27592241,.0000678,42.9990,153.6652,283.1598,76.9178,0,U,62041,999,3766,.4582E-3,.12373E-3,0
STARLINK-32509,2024-216L,2025-07-15T21:57:09.537408,15.27586948,.0001057,42.9983,153.5332,288.9360,71.1377,0,U,62042,999,3766,.53373E-3,.14457E-3,0
STARLINK-32491,2024-216M,2025-07-16T05:11:32.937216,15.27610806,.0002861,43.0008,159.2796,246.5055,113.5496,0,U,62043,999,3744,.68769E-3,.18728E-3,0
STARLINK-32577,2024-216N,2025-07-16T04:29:00.824640,15.27595289,.0000342,42.9983,159.0521,194.5797,165.5045,0,U,62044,999,3764,.64726E-3,.176E-3,0
STARLINK-32618,2024-216P,2025-07-15T22:13:46.897536,15.27588610,.0000877,42.9988,153.6196,255.8508,104.2246,0,U,62045,999,3748,.48494E-3,.1311E-3,0
STARLINK-32598,2024-216Q,2025-07-15T14:44:59.515008,15.27582789,.0001085,43.0017,154.7187,268.5511,91.5217,0,U,62046,999,3755,.55879E-3,.15147E-3,0
STARLINK-32630,2024-216R,2025-07-16T04:45:39.789216,15.27590701,.0001373,43.0012,159.1376,269.5852,90.4842,0,U,62047,999,3755,.40281E-3,.10842E-3,0
